{"type": "FeatureCollection", "features": [ {"type": "Feature", "properties": {"norad_id": 31212, "name": "FENGYUN 1C DEB", "group": "fengyun-1c-debris", "lat": 1.6630523476086347, "lon": 14.977815309872469, "alt_km": 905.3372117293866, "timestamp": "2025-12-09T20:37:09.568169+00:00", "meta": {"OBJECT_NAME": "FENGYUN 1C DEB", "OBJECT_ID": "1999-025BKS", "EPOCH": "2025-11-25T01:25:48.692640", "MEAN_MOTION": 14.12981607, "ECCENTRICITY": 0.00745379, "INCLINATION": 99.223, "RA_OF_ASC_NODE": 0.0078, "ARG_OF_PERICENTER": 220.8092, "MEAN_ANOMALY": 138.7482, "EPHEMERIS_TYPE": 0, "CLASSIFICATION_TYPE": "U", "NORAD_CAT_ID": 31212, "ELEMENT_SET_NO": 999, "REV_AT_EPOCH": 95409, "BSTAR": 0.0015990818, "MEAN_MOTION_DOT": 3.014e-05, "MEAN_MOTION_DDOT": 0}, "tle": {"line1": "1 31212U 99025BKS 25329.05959135  .00003014  00000+0  15991-2 0  9996", "line2": "2 31212  99.2230   0.0078 0074537 220.8092 138.7482 14.12981607954099"}}, "geometry": {"type": "Point", "coordinates": [14.977815309872469, 1.6630523476086347]}}, {"type": "Feature", "properties": {"norad_id": 31215, "name": "FENGYUN 1C DEB", "group": "fengyun-1c-debris", "lat": 49.51350646530556, "lon": 18.576571990116708, "alt_km": 821.0407315059629, "timestamp": "2025-12-09T20:37:09.568179+00:00", "meta": {"OBJECT_NAME": "FENGYUN 1C DEB", "OBJECT_ID": "1999-025BKV", "EPOCH": "2025-12-01T19:24:11.403648", "MEAN_MOTION": 14.33696459, "ECCENTRICITY": 0.00702274, "INCLINATION": 99.0744, "RA_OF_ASC_NODE": 179.3473, "ARG_OF_PERICENTER": 355.6358, "MEAN_ANOMALY": 4.4204, "EPHEMERIS_TYPE": 0, "CLASSIFICATION_TYPE": "U", "NORAD_CAT_ID": 31215, "ELEMENT_SET_NO": 999, "REV_AT_EPOCH": 96369, "BSTAR": 0.00097709666, "MEAN_MOTION_DOT": 2.74e-05, "MEAN_MOTION_DDOT": 0}, "tle": {"line1": "1 31215U 99025BKV 25335.80846532  .00002740  00000+0  97710-3 0  9990", "line2": "2 31215  99.0744 179.3473 0070227 355.6358   4.4204 14.33696459963691"}}, "geometry": {"type": "Point", "coordinates": [18.576571990116708, 49.51350646530556]}}, {"type": "Feature", "properties": {"norad_id": 31217, "name": "FENGYUN 1C DEB", "group": "fengyun-1c-debris", "lat": 81.30718007717859, "lon": -104.1629877296511, "alt_km": 809.8982674945773, "timestamp": "2025-12-09T20:37:09.568190+00:00", "meta": {"OBJECT_NAME": "FENGYUN 1C DEB", "OBJECT_ID": "1999-025BKX", "EPOCH": "2025-12-09T11:43:03.681120", "MEAN_MOTION": 14.17527272, "ECCENTRICITY": 0.00995348, "INCLINATION": 98.6407, "RA_OF_ASC_NODE": 351.4642, "ARG_OF_PERICENTER": 169.3491, "MEAN_ANOMALY": 190.9825, "EPHEMERIS_TYPE": 0, "CLASSIFICATION_TYPE": "U", "NORAD_CAT_ID": 31217, "ELEMENT_SET_NO": 999, "REV_AT_EPOCH": 96302, "BSTAR": 0.00092271961, "MEAN_MOTION_DOT": 1.924e-05, "MEAN_MOTION_DDOT": 0}, "tle": {"line1": "1 31217U 99025BKX 25343.48823705  .00001924  00000+0  92272-3 0  9993", "line2": "2 31217  98.6407 351.4642 0099534 169.3491 190.9825 14.17527272963020"}}, "geometry": {"type": "Point", "coordinates": [-104.1629877296511, 81.30718007717859]}}, {"type": "Feature", "properties": {"norad_id": 31218, "name": "FENGYUN 1C DEB", "group": "fengyun-1c-debris", "lat": 38.1400820320743, "lon": -79.19430571918319, "alt_km": 652.1226772250266, "timestamp": "2025-12-09T20:37:09.568201+00:00", "meta": {"OBJECT_NAME": "FENGYUN 1C DEB", "OBJECT_ID": "1999-025BKY", "EPOCH": "2025-12-09T13:27:22.698432", "MEAN_MOTION": 14.72193121, "ECCENTRICITY": 0.00115655, "INCLINATION": 98.84, "RA_OF_ASC_NODE": 93.4622, "ARG_OF_PERICENTER": 45.4249, "MEAN_ANOMALY": 314.7898, "EPHEMERIS_TYPE": 0, "CLASSIFICATION_TYPE": "U", "NORAD_CAT_ID": 31218, "ELEMENT_SET_NO": 999, "REV_AT_EPOCH": 97036, "BSTAR": 0.0057377607, "MEAN_MOTION_DOT": 0.00036343, "MEAN_MOTION_DDOT": 0}, "tle": {"line1": "1 31218U 99025BKY 25343.56067938  .00036343  00000+0  57378-2 0  9991", "line2": "2 31218  98.8400  93.4622 0011565  45.4249 314.7898 14.72193121970364"}}, "geometry": {"type": "Point", "coordinates": [-79.19430571918319, 38.1400820320743]}}, {"type": "Feature", "properties": {"norad_id": 31219, "name": "FENGYUN 1C DEB", "group": "fengyun-1c-debris", "lat": -67.36987593340122, "lon": 150.5053994540761, "alt_km": 828.2974582323695, "timestamp": "2025-12-09T20:37:09.568211+00:00", "meta": {"OBJECT_NAME": "FENGYUN 1C DEB", "OBJECT_ID": "1999-025BKZ", "EPOCH": "2025-12-08T11:10:29.742528", "MEAN_MOTION": 14.13752894, "ECCENTRICITY": 0.00789844, "INCLINATION": 99.2851, "RA_OF_ASC_NODE": 352.1645, "ARG_OF_PERICENTER": 189.1751, "MEAN_ANOMALY": 170.7982, "EPHEMERIS_TYPE": 0, "CLASSIFICATION_TYPE": "U", "NORAD_CAT_ID": 31219, "ELEMENT_SET_NO": 999, "REV_AT_EPOCH": 95509, "BSTAR": 0.0022347754, "MEAN_MOTION_DOT": 4.308e-05, "MEAN_MOTION_DDOT": 0}, "tle": {"line1": "1 31219U 99025BKZ 25342.46562202  .00004308  00000+0  22348-2 0  9999", "line2": "2 31219  99.2851 352.1645 0078984 189.1751 170.7982 14.13752894955092"}}, "geometry": {"type": "Point", "coordinates": [150.5053994540761, -67.36987593340122]}}, {"type": "Feature", "properties": {"norad_id": 31222, "name": "FENGYUN 1C DEB", "group": "fengyun-1c-debris", "lat": -72.84031470528255, "lon": 82.92799191772022, "alt_km": 687.4670994091721, "timestamp": "2025-12-09T20:37:09.568222+00:00", "meta": {"OBJECT_NAME": "FENGYUN 1C DEB", "OBJECT_ID": "1999-025BLC", "EPOCH": "2025-12-09T11:20:18.300192", "MEAN_MOTION": 14.97706813, "ECCENTRICITY": 0.01706022, "INCLINATION": 98.611, "RA_OF_ASC_NODE": 53.1115, "ARG_OF_PERICENTER": 80.2046, "MEAN_ANOMALY": 281.8391, "EPHEMERIS_TYPE": 0, "CLASSIFICATION_TYPE": "U", "NORAD_CAT_ID": 31222, "ELEMENT_SET_NO": 999, "REV_AT_EPOCH": 99935, "BSTAR": 0.00082269667, "MEAN_MOTION_DOT": 0.00012962, "MEAN_MOTION_DDOT": 0}, "tle": {"line1": "1 31222U 99025BLC 25343.47243403  .00012962  00000+0  82270-3 0  9990", "line2": "2 31222  98.6110  53.1115 0170602  80.2046 281.8391 14.97706813999352"}}, "geometry": {"type": "Point", "coordinates": [82.92799191772022, -72.84031470528255]}}, {"type": "Feature", "properties": {"norad_id": 31223, "name": "FENGYUN 1C DEB", "group": "fengyun-1c-debris", "lat": -23.860619530793226, "lon": 46.299118416348996, "alt_km": 1140.5441598477591, "timestamp": "2025-12-09T20:37:09.568232+00:00", "meta": {"OBJECT_NAME": "FENGYUN 1C DEB", "OBJECT_ID": "1999-025BLD", "EPOCH": "2025-12-08T15:45:00.855360", "MEAN_MOTION": 13.77212158, "ECCENTRICITY": 0.02419645, "INCLINATION": 99.0051, "RA_OF_ASC_NODE": 229.1805, "ARG_OF_PERICENTER": 51.571, "MEAN_ANOMALY": 310.6895, "EPHEMERIS_TYPE": 0, "CLASSIFICATION_TYPE": "U", "NORAD_CAT_ID": 31223, "ELEMENT_SET_NO": 999, "REV_AT_EPOCH": 92672, "BSTAR": 0.0033819639, "MEAN_MOTION_DOT": 4.12e-05, "MEAN_MOTION_DDOT": 0}, "tle": {"line1": "1 31223U 99025BLD 25342.65625990  .00004120  00000+0  33820-2 0  9998", "line2": "2 31223  99.0051 229.1805 0241964  51.5710 310.6895 13.77212158926724"}}, "geometry": {"type": "Point", "coordinates": [46.299118416348996, -23.860619530793226]}}, {"type": "Feature", "properties": {"norad_id": 31224, "name": "FENGYUN 1C DEB", "group": "fengyun-1c-debris", "lat": -58.9444134116577, "lon": 141.71727183362262, "alt_km": 759.6197453333589, "timestamp": "2025-12-09T20:37:09.568243+00:00", "meta": {"OBJECT_NAME": "FENGYUN 1C DEB", "OBJECT_ID": "1999-025BLE", "EPOCH": "2025-12-07T05:24:06.867936", "MEAN_MOTION": 14.28881555, "ECCENTRICITY": 0.01576901, "INCLINATION": 98.3695, "RA_OF_ASC_NODE": 333.3388, "ARG_OF_PERICENTER": 179.1537, "MEAN_ANOMALY": 197.3036, "EPHEMERIS_TYPE": 0, "CLASSIFICATION_TYPE": "U", "NORAD_CAT_ID": 31224, "ELEMENT_SET_NO": 999, "REV_AT_EPOCH": 69172, "BSTAR": 0.00051563663, "MEAN_MOTION_DOT": 1.444e-05, "MEAN_MOTION_DDOT": 0}, "tle": {"line1": "1 31224U 99025BLE 25341.22507949  .00001444  00000+0  51564-3 0  9996", "line2": "2 31224  98.3695 333.3388 0157690 179.1537 197.3036 14.28881555691727"}}, "geometry": {"type": "Point", "coordinates": [141.71727183362262, -58.9444134116577]}}, {"type": "Feature", "properties": {"norad_id": 31225, "name": "FENGYUN 1C DEB", "group": "fengyun-1c-debris", "lat": 57.099839076192296, "lon": 42.886451392793994, "alt_km": 793.5708767240849, "timestamp": "2025-12-09T20:37:09.568253+00:00", "meta": {"OBJECT_NAME": "FENGYUN 1C DEB", "OBJECT_ID": "1999-025BLF", "EPOCH": "2025-12-09T03:33:08.107200", "MEAN_MOTION": 14.17828813, "ECCENTRICITY": 0.0088171, "INCLINATION": 98.9892, "RA_OF_ASC_NODE": 56.3298, "ARG_OF_PERICENTER": 1.7565, "MEAN_ANOMALY": 27.9512, "EPHEMERIS_TYPE": 0, "CLASSIFICATION_TYPE": "U", "NORAD_CAT_ID": 31225, "ELEMENT_SET_NO": 999, "REV_AT_EPOCH": 95771, "BSTAR": 0.0015449746, "MEAN_MOTION_DOT": 3.232e-05, "MEAN_MOTION_DDOT": 0}, "tle": {"line1": "1 31225U 99025BLF 25343.14801050  .00003232  00000+0  15450-2 0  9990", "line2": "2 31225  98.9892  56.3298 0088171   1.7565  27.9512 14.17828813957710"}}, "geometry": {"type": "Point", "coordinates": [42.886451392793994, 57.099839076192296]}}, {"type": "Feature", "properties": {"norad_id": 31226, "name": "FENGYUN 1C DEB", "group": "fengyun-1c-debris", "lat": 51.96140142920565, "lon": 174.62721773136977, "alt_km": 777.0150188977868, "timestamp": "2025-12-09T20:37:09.568264+00:00", "meta": {"OBJECT_NAME": "FENGYUN 1C DEB", "OBJECT_ID": "1999-025BLG", "EPOCH": "2025-12-06T17:57:16.149312", "MEAN_MOTION": 14.2667576, "ECCENTRICITY": 0.01264653, "INCLINATION": 98.3501, "RA_OF_ASC_NODE": 340.838, "ARG_OF_PERICENTER": 213.6965, "MEAN_ANOMALY": 145.613, "EPHEMERIS_TYPE": 0, "CLASSIFICATION_TYPE": "U", "NORAD_CAT_ID": 31226, "ELEMENT_SET_NO": 999, "REV_AT_EPOCH": 61968, "BSTAR": 0.00066349543, "MEAN_MOTION_DOT": 1.704e-05, "MEAN_MOTION_DDOT": 0}, "tle": {"line1": "1 31226U 99025BLG 25340.74810358  .00001704  00000+0  66350-3 0  9993", "line2": "2 31226  98.3501 340.8380 0126465 213.6965 145.6130 14.26675760619688"}}, "geometry": {"type": "Point", "coordinates": [174.62721773136977, 51.96140142920565]}}]}